1  3158U 68023A   21160.55475421 -.00000076  00000-0  95160-5 0  9999
2  3158  65.3321 313.8906 0050782 270.0611  89.4640 13.97742916715146
1 03158U 68023A   21160.62630397 -.00000076  00000-0  95410-5 0  9990
2 03158  65.3321 313.7034 0050783 270.0394  89.4857 13.97742905714738
1 03158U 68023A   21160.76940349 -.00000076  00000-0  93072-5 0  9998
2 03158  65.3321 313.3289 0050780 270.0016  89.5235 13.97742885714754
1 03158U 68023A   21161.55645058 -.00000086  00000-0  26615-5 0  9995
2 03158  65.3321 311.2691 0050776 269.7633  89.7619 13.97742878714865
1 03158U 68023A   21161.77109982 -.00000086  00000-0  24672-5 0  9991
2 03158  65.3321 310.7074 0050777 269.6983  89.8268 13.97742864714891
1  3158U 68023A   21161.77109982 -.00000086  00000-0  24672-5 0  9991
2  3158  65.3321 310.7074 0050777 269.6983  89.8268 13.97742864715319
1 03158U 68023A   21162.55814684 -.00000096  00000-0 -46296-5 0  9998
2 03158  65.3321 308.6477 0050776 269.4592  90.0659 13.97742876715002
1 03158U 68023A   21162.77279603 -.00000092  00000-0 -17206-5 0  9993
2 03158  65.3321 308.0859 0050774 269.3961  90.1291 13.97742895715034
1  3158U 68023A   21162.77279603 -.00000092  00000-0 -17206-5 0  9993
2  3158  65.3321 308.0859 0050774 269.3961  90.1291 13.97742895715450
1 03158U 68023A   21163.48829329 -.00000096  00000-0 -42065-5 0  9993
2 03158  65.3322 306.2134 0050774 269.1777  90.3475 13.97742937715138
1 03158U 68023A   21163.77449227 -.00000095  00000-0 -36765-5 0  9999
2 03158  65.3323 305.4645 0050773 269.0969  90.4284 13.97742912715174
1  3158U 68023A   21163.77449227 -.00000095  00000-0 -36765-5 0  9999
2  3158  65.3323 305.4645 0050773 269.0969  90.4284 13.97742912715590
1 03158U 68023A   21164.41843988 -.00000091  00000-0 -11870-5 0  9999
2 03158  65.3323 303.7792 0050773 268.9029  90.6224 13.97742938715267
1 03158U 68023A   21164.77618857 -.00000080  00000-0  64929-5 0  9993
2 03158  65.3323 302.8429 0050773 268.8003  90.7250 13.97742960715316
1  3158U 68023A   21164.77618857 -.00000080  00000-0  64929-5 0  9993
2  3158  65.3323 302.8429 0050773 268.8003  90.7250 13.97742960715732
1 03158U 68023A   21165.56323567 -.00000068  00000-0  15218-4 0  9994
2 03158  65.3323 300.7832 0050781 268.5600  90.9652 13.97742993715426
1 03158U 68023A   21165.77788493 -.00000062  00000-0  19345-4 0  9999
2 03158  65.3323 300.2214 0050781 268.4984  91.0269 13.97742995715450
1  3158U 68023A   21165.77788493 -.00000062  00000-0  19345-4 0  9999
2  3158  65.3323 300.2214 0050781 268.4984  91.0269 13.97742995715876
1 03158U 68023A   21166.56493202 -.00000053  00000-0  25627-4 0  9998
2 03158  65.3324 298.1617 0050780 268.2615  91.2639 13.97743038715565
1 03158U 68023A   21166.70803152 -.00000051  00000-0  26750-4 0  9999
2 03158  65.3324 297.7873 0050780 268.2195  91.3058 13.97743032715589
1  3158U 68023A   21166.92268071 -.00000052  00000-0  26379-4 0  9996
2  3158  65.3324 297.2255 0050781 268.1582  91.3671 13.97743046716035
1 03158U 68023A   21167.56662826 -.00000058  00000-0  22342-4 0  9995
2 03158  65.3324 295.5403 0050779 267.9601  91.5654 13.97743061715700
1 03158U 68023A   21167.70972771 -.00000057  00000-0  22574-4 0  9990
2 03158  65.3324 295.1658 0050778 267.9143  91.6112 13.97743068715727
1  3158U 68023A   21168.06747631 -.00000063  00000-0  18225-4 0  9990
2  3158  65.3324 294.2296 0050779 267.8118  91.7137 13.97743087716198
1 03158U 68023A   21168.56832437 -.00000075  00000-0  10153-4 0  9999
2 03158  65.3324 292.9189 0050775 267.6558  91.8698 13.97743079715841
1 03158U 68023A   21168.71142380 -.00000075  00000-0  10299-4 0  9998
2 03158  65.3324 292.5444 0050773 267.6125  91.9131 13.97743093715860
1  3158U 68023A   21169.06917237 -.00000082  00000-0  56203-5 0  9992
2  3158  65.3324 291.6081 0050774 267.5078  92.0178 13.97743112716332
1 03158U 68023A   21169.49847059 -.00000086  00000-0  26118-5 0  9999
2 03158  65.3324 290.4847 0050783 267.3668  92.1589 13.97743153715973
1 03158U 68023A   21169.57002031 -.00000085  00000-0  34481-5 0  9992
2 03158  65.3324 290.2975 0050782 267.3460  92.1797 13.97743155715986
1 03158U 68023A   21170.57171645 -.00000094  00000-0 -29438-5 0  9999
2 03158  65.3325 287.6761 0050773 267.0504  92.4755 13.97743151716126
1 03158U 68023A   21170.64326619 -.00000093  00000-0 -21183-5 0  9998
2 03158  65.3324 287.4888 0050774 267.0314  92.4945 13.97743144716137
1  3158U 68023A   21171.57341266 -.00000088  00000-0  11912-5 0  9998
2  3158  65.3324 285.0548 0050773 266.7491  92.7769 13.97743156716685
1 03158U 68023A   21172.57510890 -.00000076  00000-0  97958-5 0  9991
2 03158  65.3324 282.4334 0050764 266.4546  93.0718 13.97743187716409
1  3158U 68023A   21172.57510890 -.00000076  00000-0  97958-5 0  9991
2  3158  65.3324 282.4334 0050764 266.4546  93.0718 13.97743187716825
1 03158U 68023A   21173.57680506 -.00000073  00000-0  11802-4 0  9994
2 03158  65.3323 279.8120 0050753 266.1489  93.3777 13.97743222716545
1 03158U 68023A   21173.64835480 -.00000072  00000-0  12377-4 0  9992
2 03158  65.3323 279.6248 0050753 266.1306  93.3961 13.97743220716556
1 03158U 68023A   21174.57850111 -.00000072  00000-0  11950-4 0  9999
2 03158  65.3321 277.1906 0050741 265.8446  93.6824 13.97743279716685
1 03158U 68023A   21174.72160055 -.00000072  00000-0  12092-4 0  9995
2 03158  65.3321 276.8161 0050738 265.8041  93.7229 13.97743292716709
1  3158U 68023A   21174.72160055 -.00000072  00000-0  12092-4 0  9995
2  3158  65.3321 276.8161 0050738 265.8041  93.7229 13.97743292717126
1 03158U 68023A   21175.58019715 -.00000077  00000-0  89473-5 0  9999
2 03158  65.3321 274.5692 0050735 265.5400  93.9873 13.97743303716829
1 03158U 68023A   21175.72329660 -.00000077  00000-0  85141-5 0  9996
2 03158  65.3321 274.1947 0050738 265.4983  94.0290 13.97743300716840
1  3158U 68023A   21175.72329660 -.00000077  00000-0  85141-5 0  9996
2  3158  65.3321 274.1947 0050738 265.4983  94.0290 13.97743300717267
1 03158U 68023A   21176.43879379 -.00000081  00000-0  57705-5 0  9992
2 03158  65.3320 272.3222 0050741 265.2805  94.2469 13.97743285716943
1  3158U 68023A   21176.72499275 -.00000078  00000-0  79682-5 0  9991
2  3158  65.3320 271.5733 0050735 265.2010  94.3266 13.97743269717402
1 03158U 68023A   21177.51203973 -.00000069  00000-0  14318-4 0  9991
2 03158  65.3321 269.5136 0050735 264.9623  94.5655 13.97743276717090
1 03158U 68023A   21177.65513920 -.00000063  00000-0  18254-4 0  9999
2 03158  65.3321 269.1391 0050732 264.9215  94.6063 13.97743294717110
1  3158U 68023A   21177.94133809 -.00000060  00000-0  20982-4 0  9993
2  3158  65.3321 268.3901 0050729 264.8420  94.6859 13.97743314717577
1 03158U 68023A   21178.51373588 -.00000053  00000-0  25473-4 0  9999
2 03158  65.3320 266.8922 0050730 264.6628  94.8653 13.97743330717237
1 03158U 68023A   21178.65683533 -.00000050  00000-0  27689-4 0  9996
2 03158  65.3320 266.5177 0050728 264.6218  94.9064 13.97743343717251
1  3158U 68023A   21178.94303421 -.00000052  00000-0  26524-4 0  9992
2  3158  65.3320 265.7687 0050723 264.5410  94.9873 13.97743354717717
1 03158U 68023A   21179.51543193 -.00000051  00000-0  27077-4 0  9991
2 03158  65.3319 264.2708 0050716 264.3626  95.1659 13.97743387717375
1 03158U 68023A   21179.65853135 -.00000050  00000-0  27793-4 0  9990
2 03158  65.3319 263.8963 0050712 264.3215  95.2071 13.97743409717399
1  3158U 68023A   21179.94473019 -.00000057  00000-0  22693-4 0  9992
2  3158  65.3319 263.1474 0050708 264.2381  95.2906 13.97743411717858
1 03158U 68023A   21180.23092897 -.00000058  00000-0  22041-4 0  9995
2 03158  65.3319 262.3985 0050708 264.1457  95.3831 13.97743462717471
1 03158U 68023A   21180.66022719 -.00000064  00000-0  18203-4 0  9990
2 03158  65.3318 261.2750 0050708 264.0175  95.5114 13.97743476717532
1  3158U 68023A   21181.16107506 -.00000072  00000-0  12400-4 0  9996
2  3158  65.3318 259.9644 0050708 263.8634  95.6657 13.97743522718025
1 03158U 68023A   21181.51882355 -.00000079  00000-0  75979-5 0  9995
2 03158  65.3317 259.0282 0050708 263.7538  95.7754 13.97743517717656
1 03158U 68023A   21181.59037325 -.00000079  00000-0  70926-5 0  9999
2 03158  65.3317 258.8409 0050707 263.7329  95.7964 13.97743521717660
1  3158U 68023A   21182.16277084 -.00000088  00000-0  11781-5 0  9995
2  3158  65.3316 257.3430 0050710 263.5610  95.9685 13.97743542718163
1 03158U 68023A   21182.52051937 -.00000085  00000-0  29879-5 0  9996
2 03158  65.3316 256.4068 0050696 263.4555  96.0742 13.97743560717794
1 03158U 68023A   21182.66361878 -.00000084  00000-0  41902-5 0  9999
2 03158  65.3315 256.0323 0050692 263.4139  96.1159 13.97743575717819
1  3158U 68023A   21183.52221530 -.00000082  00000-0  55573-5 0  9992
2  3158  65.3314 253.7854 0050686 263.1555  96.3746 13.97743567718358
1 03158U 68023A   21183.66531473 -.00000079  00000-0  70456-5 0  9990
2 03158  65.3314 253.4109 0050686 263.1136  96.4166 13.97743572717951
1 03158U 68023A   21184.52391131 -.00000072  00000-0  12373-4 0  9997
2 03158  65.3312 251.1640 0050676 262.8532  96.6775 13.97743565718073
1  3158U 68023A   21184.52391131 -.00000072  00000-0  12373-4 0  9997
2  3158  65.3312 251.1640 0050676 262.8532  96.6775 13.97743565718499
1 03158U 68023A   21184.88165986 -.00000067  00000-0  15750-4 0  9999
2 03158  65.3312 250.2278 0050669 262.7524  96.7784 13.97743592718129
1 03158U 68023A   21185.52560727 -.00000065  00000-0  17168-4 0  9996
2 03158  65.3310 248.5427 0050660 262.5544  96.9768 13.97743591718217
1  3158U 68023A   21185.52560727 -.00000065  00000-0  17168-4 0  9996
2  3158  65.3310 248.5427 0050660 262.5544  96.9768 13.97743591718633
1 03158U 68023A   21185.88335579 -.00000064  00000-0  17617-4 0  9998
2 03158  65.3310 247.6064 0050654 262.4511  97.0803 13.97743616718265
1  3158U 68023A   21186.52730313 -.00000068  00000-0  15128-4 0  9994
2  3158  65.3309 245.9212 0050643 262.2481  97.2837 13.97743616718776
1 03158U 68023A   21186.88505163 -.00000072  00000-0  12352-4 0  9997
2 03158  65.3308 244.9850 0050638 262.1455  97.3865 13.97743627718400
